NORAD_CAT_ID,OBJECT_NAME,OBJECT_TYPE,EPOCH,MEAN_MOTION,ECCENTRICITY,INCLINATION,RA_OF_ASC_NODE,ARG_OF_PERICENTER,MEAN_ANOMALY,BSTAR,MEAN_MOTION_DOT,MEAN_MOTION_DDOT,TLE_LINE0,TLE_LINE1,TLE_LINE2,SEMIMAJOR_AXIS,PERIOD,APOGEE,PERIGEE,DECAYED
56812.0,STARLINK-6065,PAYLOAD,2024-01-16 13:49:44,14.98321687,0.0002422,70.0014,138.8523,247.747,112.3432,-9.2774e-05,-1.199e-05,0.0,0 STARLINK-6065,1 56812U 23078AX  24016.57620906 -.00001199  00000-0 -92774-4 0  9995,2 56812  70.0014 138.8523 0002422 247.7470 112.3432 14.98321687 35875,6950.219,96.108,573.767,570.4,0.0
56812.0,STARLINK-6065,PAYLOAD,2024-01-16 18:38:08,14.98322486,0.000243,70.0015,138.3469,253.5273,106.5619,-7.3911e-05,-9.74e-06,0.0,0 STARLINK-6065,1 56812U 23078AX  24016.77648904 -.00000974  00000-0 -73911-4 0  9997,2 56812  70.0015 138.3469 0002430 253.5273 106.5619 14.98322486 35909,6950.216,96.107,573.77,570.392,0.0
56812.0,STARLINK-6065,PAYLOAD,2024-01-17 12:15:36,14.98328205,0.000284,70.0003,136.4944,264.0767,96.0068,-2.8017e-05,-4.27e-06,0.0,0 STARLINK-6065,1 56812U 23078AX  24017.51084428 -.00000427  00000-0 -28017-4 0  9995,2 56812  70.0003 136.4944 0002840 264.0767  96.0068 14.98328205 36270,6950.198,96.107,574.037,570.09,0.0
56812.0,STARLINK-6065,PAYLOAD,2024-01-17 17:04:00,14.98332348,0.000265,70.0009,135.9902,259.5132,100.5728,1.8205e-05,1.24e-06,0.0,0 STARLINK-6065,1 56812U 23078AX  24017.71112015  .00000124  00000-0  18205-4 0  9991,2 56812  70.0009 135.9902 0002650 259.5132 100.5728 14.98332348 36040,6950.186,96.107,573.892,570.209,0.0
56812.0,STARLINK-6065,PAYLOAD,2024-01-18 12:17:37,14.98323379,0.0002686,70.0009,133.9705,257.6711,102.4148,8.1431e-05,8.79e-06,0.0,0 STARLINK-6065,1 56812U 23078AX  24018.51224436  .00000879  00000-0  81431-4 0  9999,2 56812  70.0009 133.9705 0002686 257.6711 102.4148 14.98323379 36423,6950.213,96.107,573.945,570.212,0.0
56812.0,STARLINK-6065,PAYLOAD,2024-01-18 13:53:46,14.9832218,0.000277,70.0009,133.8025,259.0465,101.0382,6.4133e-05,6.72e-06,0.0,0 STARLINK-6065,1 56812U 23078AX  24018.57900596  .00000672  00000-0  64133-4 0  9994,2 56812  70.0009 133.8025 0002770 259.0465 101.0382 14.98322180 36179,6950.217,96.108,574.007,570.157,0.0
56812.0,STARLINK-6065,PAYLOAD,2024-01-18 17:06:02,14.98325344,0.0002703,70.001,133.4655,258.6344,101.4512,6.9947e-05,7.42e-06,0.0,0 STARLINK-6065,1 56812U 23078AX  24018.71252419  .00000742  00000-0  69947-4 0  9990,2 56812  70.0010 133.4655 0002703 258.6344 101.4512 14.98325344 36199,6950.207,96.107,573.951,570.194,0.0
56812.0,STARLINK-6065,PAYLOAD,2024-01-19 12:19:40,14.98309083,0.0002919,70.0008,131.4473,257.9454,102.1378,-0.00024831,-3.053e-05,0.0,0 STARLINK-6065,1 56812U 23078AX  24019.51366537 -.00003053  00000-0 -24831-3 0  9998,2 56812  70.0008 131.4473 0002919 257.9454 102.1378 14.98309083 36577,6950.258,96.108,574.151,570.094,0.0
56812.0,STARLINK-6065,PAYLOAD,2024-01-19 13:55:49,14.98306217,0.0003023,70.0004,131.2778,260.2873,99.7945,-0.00030249,-3.698e-05,0.0,0 STARLINK-6065,1 56812U 23078AX  24019.58042947 -.00003698  00000-0 -30249-3 0  9996,2 56812  70.0004 131.2778 0003023 260.2873  99.7945 14.98306217 36328,6950.266,96.109,574.233,570.03,0.0
56812.0,STARLINK-6065,PAYLOAD,2024-01-19 17:08:05,14.98310473,0.0003368,69.9996,130.9406,271.3779,88.6994,-0.00026823,-3.29e-05,0.0,0 STARLINK-6065,1 56812U 23078AX  24019.71394776 -.00003290  00000-0 -26823-3 0  9992,2 56812  69.9996 130.9406 0003368 271.3779  88.6994 14.98310473 36341,6950.253,96.108,574.459,569.777,0.0
56812.0,STARLINK-6065,PAYLOAD,2024-01-20 10:45:33,14.98314049,0.00031,70.0003,129.0856,271.0975,88.9829,-7.6196e-05,-1.002e-05,0.0,0 STARLINK-6065,1 56812U 23078AX  24020.44830934 -.00001002  00000-0 -76196-4 0  9993,2 56812  70.0003 129.0856 0003100 271.0975  88.9829 14.98314049 36714,6950.242,96.108,574.262,569.953,0.0
56812.0,STARLINK-6065,PAYLOAD,2024-01-20 13:57:49,14.98319592,0.0002506,70.0015,128.7508,255.4475,104.6406,-4.5064e-06,-1.47e-06,0.0,0 STARLINK-6065,1 56812U 23078AX  24020.58182512 -.00000147  00000-0 -45064-5 0  9990,2 56812  70.0015 128.7508 0002506 255.4475 104.6406 14.98319592 36475,6950.225,96.108,573.832,570.348,0.0
56812.0,STARLINK-6065,PAYLOAD,2024-01-20 17:10:05,14.98327521,0.0002675,70.0015,128.4174,255.5935,104.4927,5.6602e-05,5.82e-06,0.0,0 STARLINK-6065,1 56812U 23078AX  24020.71533848  .00000582  00000-0  56602-4 0  9997,2 56812  70.0015 128.4174 0002675 255.5935 104.4927 14.98327521 36758,6950.201,96.107,573.925,570.206,0.0
56812.0,STARLINK-6065,PAYLOAD,2024-01-21 10:47:32,14.98333157,0.0003137,70.0001,126.5627,272.9767,87.1034,0.00049233,5.787e-05,0.0,0 STARLINK-6065,1 56812U 23078AX  24021.44967898  .00005787  00000-0  49233-3 0  9997,2 56812  70.0001 126.5627 0003137 272.9767  87.1034 14.98333157 36865,6950.183,96.107,574.228,569.868,0.0
56812.0,STARLINK-6065,PAYLOAD,2024-01-21 17:12:03,14.98346181,0.0002606,70.0015,125.8919,267.7725,92.3136,0.00041103,4.817e-05,0.0,0 STARLINK-6065,1 56812U 23078AX  24021.71671180  .00004817  00000-0  41103-3 0  9994,2 56812  70.0015 125.8919 0002606 267.7725  92.3136 14.98346181 36909,6950.143,96.106,573.819,570.197,0.0
56812.0,STARLINK-6065,PAYLOAD,2024-01-22 06:01:09,14.98340837,0.0002312,70.0031,124.5497,257.7142,102.3759,7.919e-05,8.52e-06,0.0,0 STARLINK-6065,1 56812U 23078AX  24022.25080451  .00000852  00000-0  79190-4 0  9992,2 56812  70.0031 124.5497 0002312 257.7142 102.3759 14.98340837 36725,6950.159,96.106,573.631,570.418,0.0
56812.0,STARLINK-6065,PAYLOAD,2024-01-22 10:49:34,14.98336162,0.0003359,70.0001,124.0398,275.691,84.3866,-5.2237e-05,-7.16e-06,0.0,0 STARLINK-6065,1 56812U 23078AX  24022.45108840 -.00000716  00000-0 -52237-4 0  9991,2 56812  70.0001 124.0398 0003359 275.6910  84.3866 14.98336162 37018,6950.174,96.107,574.373,569.704,0.0
56812.0,STARLINK-6065,PAYLOAD,2024-01-22 17:14:10,14.98270459,0.0003551,70.0008,123.3664,267.9633,92.1119,-0.00075264,-9.048e-05,0.0,0 STARLINK-6065,1 56812U 23078AX  24022.71818038 -.00009048  00000-0 -75264-3 0  9998,2 56812  70.0008 123.3664 0003551 267.9633  92.1119 14.98270459 37051,6950.377,96.111,574.71,569.774,0.0
56812.0,STARLINK-6065,PAYLOAD,2024-01-23 04:27:02,14.98329018,0.0003528,70.0009,122.1873,259.7284,100.3477,9.5886e-06,2.1e-07,0.0,0 STARLINK-6065,1 56812U 23078AX  24023.18544487  .00000021  00000-0  95886-5 0  9998,2 56812  70.0009 122.1873 0003528 259.7284 100.3477 14.98329018 36869,6950.196,96.107,574.513,569.609,0.0
56812.0,STARLINK-6065,PAYLOAD,2024-01-23 10:51:34,14.983478,0.0003315,69.9998,121.5148,274.5431,85.5349,-0.00021026,-2.602e-05,0.0,0 STARLINK-6065,1 56812U 23078AX  24023.45247721 -.00002602  00000-0 -21026-3 0  9991,2 56812  69.9998 121.5148 0003315 274.5431  85.5349 14.98347800 37169,6950.138,96.106,574.307,569.699,0.0
56812.0,STARLINK-6065,PAYLOAD,2024-01-23 15:39:57,14.98347319,0.0002891,70.0009,121.0098,271.1575,88.9253,-0.0001254,-1.59e-05,0.0,0 STARLINK-6065,1 56812U 23078AX  24023.65275313 -.00001590  00000-0 -12540-3 0  9997,2 56812  70.0009 121.0098 0002891 271.1575  88.9253 14.98347319 36934,6950.139,96.106,574.014,569.995,0.0
56812.0,STARLINK-6065,PAYLOAD,2024-01-24 10:53:35,14.98321554,0.0003324,69.9995,118.9899,272.0771,88.0007,-4.4387e-05,-6.23e-06,0.0,0 STARLINK-6065,1 56812U 23078AX  24024.45388438 -.00000623  00000-0 -44387-4 0  9990,2 56812  69.9995 118.9899 0003324 272.0771  88.0007 14.98321554 37313,6950.219,96.108,574.394,569.774,0.0
56812.0,STARLINK-6065,PAYLOAD,2024-01-24 14:05:51,14.98319356,0.0002741,70.001,118.654,251.7146,108.3715,-5.7939e-05,-7.84e-06,0.0,0 STARLINK-6065,1 56812U 23078AX  24024.58740616 -.00000784  00000-0 -57939-4 0  9999,2 56812  70.0010 118.6540 0002741 251.7146 108.3715 14.98319356 37078,6950.226,96.108,573.996,570.186,0.0
56812.0,STARLINK-6065,PAYLOAD,2024-01-24 15:41:59,14.98324231,0.000314,69.9997,118.4844,267.2561,92.8238,-4.1704e-05,-5.91e-06,0.0,0 STARLINK-6065,1 56812U 23078AX  24024.65416334 -.00000591  00000-0 -41704-4 0  9993,2 56812  69.9997 118.4844 0003140 267.2561  92.8238 14.98324231 37087,6950.211,96.107,574.258,569.893,0.0
56812.0,STARLINK-6065,PAYLOAD,2024-01-25 10:55:36,14.983269,0.000314,70.0001,116.4648,266.6843,93.3957,1.8845e-05,1.32e-06,0.0,0 STARLINK-6065,1 56812U 23078AX  24025.45528056  .00000132  00000-0  18845-4 0  9996,2 56812  70.0001 116.4648 0003140 266.6843  93.3957 14.98326900 37463,6950.202,96.107,574.25,569.885,0.0
56812.0,STARLINK-6065,PAYLOAD,2024-01-25 14:07:52,14.9833021,0.0003118,70.0003,116.1283,263.5641,96.5163,6.4319e-05,6.75e-06,0.0,0 STARLINK-6065,1 56812U 23078AX  24025.58879733  .00000675  00000-0  64319-4 0  9990,2 56812  70.0003 116.1283 0003118 263.5641  96.5163 14.98330210 37221,6950.192,96.107,574.224,569.89,0.0
56812.0,STARLINK-6065,PAYLOAD,2024-01-25 15:44:00,14.98332897,0.0003141,70.0001,115.9607,264.5272,95.5528,4.7479e-05,4.74e-06,0.0,0 STARLINK-6065,1 56812U 23078AX  24025.65555584  .00000474  00000-0  47479-4 0  9998,2 56812  70.0001 115.9607 0003141 264.5272  95.5528 14.98332897 37231,6950.184,96.107,574.232,569.866,0.0
56812.0,STARLINK-6065,PAYLOAD,2024-01-26 14:09:52,14.98331518,0.0002834,70.0003,113.605,254.0864,105.9982,0.00012632,1.415e-05,0.0,0 STARLINK-6065,1 56812U 23078AX  24026.59019367  .00001415  00000-0  12632-3 0  9994,2 56812  70.0003 113.6050 0002834 254.0864 105.9982 14.98331518 37373,6950.188,96.107,574.023,570.084,0.0
56812.0,STARLINK-6065,PAYLOAD,2024-01-26 15:46:00,14.98332159,0.0002827,70.0003,113.4364,254.7496,105.3351,0.00013133,1.474e-05,0.0,0 STARLINK-6065,1 56812U 23078AX  24026.65695305  .00001474  00000-0  13133-3 0  9995,2 56812  70.0003 113.4364 0002827 254.7496 105.3351 14.98332159 37645,6950.186,96.107,574.016,570.086,0.0
56812.0,STARLINK-6065,PAYLOAD,2024-01-27 12:35:46,14.98327792,0.0002554,70.0009,111.249,249.1955,110.893,-3.7253e-05,-5.37e-06,0.0,0 STARLINK-6065,1 56812U 23078AX  24027.52484095 -.00000537  00000-0 -37253-4 0  9995,2 56812  70.0009 111.2490 0002554 249.1955 110.8930 14.98327792 37777,6950.2,96.107,573.84,570.29,0.0
